{
  "type": "FeatureCollection",
  "features": [
    {
      "type": "Feature",
      "properties": {
        "norad_id": 29828,
        "name": "FENGYUN 1C DEB",
        "group": "fengyun-1c-debris",
        "lat": -27.929572305994174,
        "lon": -146.58252516222436,
        "alt_km": 855.1235590911101,
        "timestamp": "2025-12-18T19:29:52.816108+00:00",
        "meta_object_name": "FENGYUN 1C DEB",
        "meta_object_id": "1999-025DW",
        "meta_epoch": "2025-12-18T01:45:53.080992",
        "meta_mean_motion": 14.08178381,
        "meta_eccentricity": 0.0061451,
        "meta_inclination": 98.7698,
        "meta_ra_of_asc_node": 37.3935,
        "meta_arg_of_pericenter": 141.2976,
        "meta_mean_anomaly": 282.5701,
        "meta_ephemeris_type": 0,
        "meta_classification_type": "U",
        "meta_norad_cat_id": 29828,
        "meta_element_set_no": 999,
        "meta_rev_at_epoch": 96812,
        "meta_bstar": 0.00078600975,
        "meta_mean_motion_dot": 1.322e-05,
        "meta_mean_motion_ddot": 0,
        "tle_line1": "1 29828U 99025DW  25352.07353103  .00001322  00000+0  78601-3 0  9995",
        "tle_line2": "2 29828  98.7698  37.3935 0061451 141.2976 282.5701 14.08178381968127"
      },
      "geometry": {
        "type": "Point",
        "coordinates": [
          -146.58252516222436,
          -27.929572305994174
        ]
      }
    },
    {
      "type": "Feature",
      "properties": {
        "norad_id": 29832,
        "name": "FENGYUN 1C DEB",
        "group": "fengyun-1c-debris",
        "lat": -33.36053969347225,
        "lon": -81.27374573848698,
        "alt_km": 622.8089172204172,
        "timestamp": "2025-12-18T19:29:52.816118+00:00",
        "meta_object_name": "FENGYUN 1C DEB",
        "meta_object_id": "1999-025EA",
        "meta_epoch": "2025-12-18T06:57:40.863456",
        "meta_mean_motion": 14.56566312,
        "meta_eccentricity": 0.01921918,
        "meta_inclination": 98.8195,
        "meta_ra_of_asc_node": 104.0407,
        "meta_arg_of_pericenter": 266.0934,
        "meta_mean_anomaly": 91.8272,
        "meta_ephemeris_type": 0,
        "meta_classification_type": "U",
        "meta_norad_cat_id": 29832,
        "meta_element_set_no": 999,
        "meta_rev_at_epoch": 336,
        "meta_bstar": 0.00014313876,
        "meta_mean_motion_dot": 7.53e-06,
        "meta_mean_motion_ddot": 0,
        "tle_line1": "1 29832U 99025EA  25352.29005629  .00000753  00000+0  14314-3 0  9999",
        "tle_line2": "2 29832  98.8195 104.0407 0192191 266.0934  91.8272 14.56566312  3365"
      },
      "geometry": {
        "type": "Point",
        "coordinates": [
          -81.27374573848698,
          -33.36053969347225
        ]
      }
    },
    {
      "type": "Feature",
      "properties": {
        "norad_id": 29833,
        "name": "FENGYUN 1C DEB",
        "group": "fengyun-1c-debris",
        "lat": -75.03458185009272,
        "lon": 119.313574079363,
        "alt_km": 543.4303159527053,
        "timestamp": "2025-12-18T19:29:52.816128+00:00",
        "meta_object_name": "FENGYUN 1C DEB",
        "meta_object_id": "1999-025EB",
        "meta_epoch": "2025-12-18T05:27:32.702976",
        "meta_mean_motion": 14.91225262,
        "meta_eccentricity": 0.00887203,
        "meta_inclination": 99.0754,
        "meta_ra_of_asc_node": 335.367,
        "meta_arg_of_pericenter": 239.1816,
        "meta_mean_anomaly": 120.0645,
        "meta_ephemeris_type": 0,
        "meta_classification_type": "U",
        "meta_norad_cat_id": 29833,
        "meta_element_set_no": 999,
        "meta_rev_at_epoch": 653,
        "meta_bstar": 0.00097052994,
        "meta_mean_motion_dot": 0.00010337,
        "meta_mean_motion_ddot": 0,
        "tle_line1": "1 29833U 99025EB  25352.22746184  .00010337  00000+0  97053-3 0  9991",
        "tle_line2": "2 29833  99.0754 335.3670 0088720 239.1816 120.0645 14.91225262  6539"
      },
      "geometry": {
        "type": "Point",
        "coordinates": [
          119.313574079363,
          -75.03458185009272
        ]
      }
    },
    {
      "type": "Feature",
      "properties": {
        "norad_id": 29835,
        "name": "FENGYUN 1C DEB",
        "group": "fengyun-1c-debris",
        "lat": 56.28950019068125,
        "lon": -44.65127013596354,
        "alt_km": 767.5146548974235,
        "timestamp": "2025-12-18T19:29:52.816138+00:00",
        "meta_object_name": "FENGYUN 1C DEB",
        "meta_object_id": "1999-025ED",
        "meta_epoch": "2025-12-18T07:25:59.570400",
        "meta_mean_motion": 14.43376974,
        "meta_eccentricity": 0.01676613,
        "meta_inclination": 99.0259,
        "meta_ra_of_asc_node": 121.0332,
        "meta_arg_of_pericenter": 20.7531,
        "meta_mean_anomaly": 9.3148,
        "meta_ephemeris_type": 0,
        "meta_classification_type": "U",
        "meta_norad_cat_id": 29835,
        "meta_element_set_no": 999,
        "meta_rev_at_epoch": 99575,
        "meta_bstar": 4.3798616e-05,
        "meta_mean_motion_dot": 1.17e-06,
        "meta_mean_motion_ddot": 0,
        "tle_line1": "1 29835U 99025ED  25352.30971725  .00000117  00000+0  43799-4 0  9997",
        "tle_line2": "2 29835  99.0259 121.0332 0167661  20.7531   9.3148 14.43376974995758"
      },
      "geometry": {
        "type": "Point",
        "coordinates": [
          -44.65127013596354,
          56.28950019068125
        ]
      }
    },
    {
      "type": "Feature",
      "properties": {
        "norad_id": 29836,
        "name": "FENGYUN 1C DEB",
        "group": "fengyun-1c-debris",
        "lat": -64.6334566610804,
        "lon": -109.05568142853103,
        "alt_km": 666.9358193891412,
        "timestamp": "2025-12-18T19:29:52.816148+00:00",
        "meta_object_name": "FENGYUN 1C DEB",
        "meta_object_id": "1999-025EE",
        "meta_epoch": "2025-12-17T06:18:38.663136",
        "meta_mean_motion": 14.54132486,
        "meta_eccentricity": 0.01547668,
        "meta_inclination": 98.1881,
        "meta_ra_of_asc_node": 87.1072,
        "meta_arg_of_pericenter": 188.3982,
        "meta_mean_anomaly": 229.382,
        "meta_ephemeris_type": 0,
        "meta_classification_type": "U",
        "meta_norad_cat_id": 29836,
        "meta_element_set_no": 999,
        "meta_rev_at_epoch": 63621,
        "meta_bstar": 0.00054925354,
        "meta_mean_motion_dot": 2.672e-05,
        "meta_mean_motion_ddot": 0,
        "tle_line1": "1 29836U 99025EE  25351.26294749  .00002672  00000+0  54925-3 0  9996",
        "tle_line2": "2 29836  98.1881  87.1072 0154766 188.3982 229.3820 14.54132486636210"
      },
      "geometry": {
        "type": "Point",
        "coordinates": [
          -109.05568142853103,
          -64.6334566610804
        ]
      }
    },
    {
      "type": "Feature",
      "properties": {
        "norad_id": 29841,
        "name": "FENGYUN 1C DEB",
        "group": "fengyun-1c-debris",
        "lat": 80.2045708636286,
        "lon": -175.73478126051717,
        "alt_km": 835.6178601420615,
        "timestamp": "2025-12-18T19:29:52.816158+00:00",
        "meta_object_name": "FENGYUN 1C DEB",
        "meta_object_id": "1999-025EK",
        "meta_epoch": "2025-12-17T19:55:13.175904",
        "meta_mean_motion": 14.464992,
        "meta_eccentricity": 0.02001297,
        "meta_inclination": 98.8189,
        "meta_ra_of_asc_node": 299.1876,
        "meta_arg_of_pericenter": 318.3779,
        "meta_mean_anomaly": 61.5331,
        "meta_ephemeris_type": 0,
        "meta_classification_type": "U",
        "meta_norad_cat_id": 29841,
        "meta_element_set_no": 999,
        "meta_rev_at_epoch": 99397,
        "meta_bstar": 0.00041175843,
        "meta_mean_motion_dot": 1.842e-05,
        "meta_mean_motion_ddot": 0,
        "tle_line1": "1 29841U 99025EK  25351.83001361  .00001842  00000+0  41176-3 0  9993",
        "tle_line2": "2 29841  98.8189 299.1876 0200129 318.3779  61.5331 14.46499200993978"
      },
      "geometry": {
        "type": "Point",
        "coordinates": [
          -175.73478126051717,
          80.2045708636286
        ]
      }
    },
    {
      "type": "Feature",
      "properties": {
        "norad_id": 29842,
        "name": "FENGYUN 1C DEB",
        "group": "fengyun-1c-debris",
        "lat": 77.73240897790126,
        "lon": 36.64918406618107,
        "alt_km": 652.1436726469292,
        "timestamp": "2025-12-18T19:29:52.816168+00:00",
        "meta_object_name": "FENGYUN 1C DEB",
        "meta_object_id": "1999-025EL",
        "meta_epoch": "2025-12-18T04:35:20.664960",
        "meta_mean_motion": 14.60324506,
        "meta_eccentricity": 0.01090836,
        "meta_inclination": 98.5695,
        "meta_ra_of_asc_node": 79.9127,
        "meta_arg_of_pericenter": 148.6488,
        "meta_mean_anomaly": 269.825,
        "meta_ephemeris_type": 0,
        "meta_classification_type": "U",
        "meta_norad_cat_id": 29842,
        "meta_element_set_no": 999,
        "meta_rev_at_epoch": 99433,
        "meta_bstar": 0.0010097942,
        "meta_mean_motion_dot": 5.254e-05,
        "meta_mean_motion_ddot": 0,
        "tle_line1": "1 29842U 99025EL  25352.19121140  .00005254  00000+0  10098-2 0  9991",
        "tle_line2": "2 29842  98.5695  79.9127 0109083 148.6488 269.8250 14.60324506994335"
      },
      "geometry": {
        "type": "Point",
        "coordinates": [
          36.64918406618107,
          77.73240897790126
        ]
      }
    }
  ]
}